STARLINK-31920
1 59907U 24100Y   26092.83335647  .00090724  00000+0  22614-2 0  9993
2 59907  42.9976 314.0998 0013874 269.1334 226.3404 15.39123269  5944
